[{"OBJECT_NAME":"ONEWEB-0576","OBJECT_ID":"2023-043V","EPOCH":"2026-06-03T14:38:35.517984","MEAN_MOTION":13.16593459,"ECCENTRICITY":0.000224,"INCLINATION":87.9108,"RA_OF_ASC_NODE":231.4704,"ARG_OF_PERICENTER":95.9159,"MEAN_ANOMALY":264.2227,"EPHEMERIS_TYPE":0,"CLASSIFICATION_TYPE":"U","NORAD_CAT_ID":56065,"ELEMENT_SET_NO":999,"REV_AT_EPOCH":15717,"BSTAR":3.2871000000000003e-06,"MEAN_MOTION_DOT":1.4e-07,"MEAN_MOTION_DDOT":0.0},{"OBJECT_NAME":"ONEWEB-0577","OBJECT_ID":"2023-043W","EPOCH":"2026-06-03T14:47:42.964800","MEAN_MOTION":13.1659301,"ECCENTRICITY":0.0002612,"INCLINATION":87.9106,"RA_OF_ASC_NODE":231.4668,"ARG_OF_PERICENTER":85.2698,"MEAN_ANOMALY":274.8731,"EPHEMERIS_TYPE":0,"CLASSIFICATION_TYPE":"U","NORAD_CAT_ID":56066,"ELEMENT_SET_NO":999,"REV_AT_EPOCH":15720,"BSTAR":-1.7097000000000002e-05,"MEAN_MOTION_DOT":6e-08,"MEAN_MOTION_DDOT":0.0},{"OBJECT_NAME":"ONEWEB-0578","OBJECT_ID":"2023-043X","EPOCH":"2026-06-03T15:05:17.386944","MEAN_MOTION":13.21825725,"ECCENTRICITY":0.0002321,"INCLINATION":87.926,"RA_OF_ASC_NODE":246.6694,"ARG_OF_PERICENTER":102.7537,"MEAN_ANOMALY":257.3856,"EPHEMERIS_TYPE":0,"CLASSIFICATION_TYPE":"U","NORAD_CAT_ID":56067,"ELEMENT_SET_NO":999,"REV_AT_EPOCH":15644,"BSTAR":4.4776e-05,"MEAN_MOTION_DOT":3.2e-07,"MEAN_MOTION_DDOT":0.0},{"OBJECT_NAME":"ONEWEB-0579","OBJECT_ID":"2023-043Y","EPOCH":"2026-06-03T14:53:10.725792","MEAN_MOTION":13.21825581,"ECCENTRICITY":0.0001742,"INCLINATION":87.9268,"RA_OF_ASC_NODE":246.6673,"ARG_OF_PERICENTER":96.4524,"MEAN_ANOMALY":263.6808,"EPHEMERIS_TYPE":0,"CLASSIFICATION_TYPE":"U","NORAD_CAT_ID":56068,"ELEMENT_SET_NO":999,"REV_AT_EPOCH":15645,"BSTAR":9.190400000000001e-06,"MEAN_MOTION_DOT":1.7e-07,"MEAN_MOTION_DDOT":0.0},{"OBJECT_NAME":"ONEWEB-0581","OBJECT_ID":"2023-043Z","EPOCH":"2026-06-03T05:49:39.151200","MEAN_MOTION":13.1659533,"ECCENTRICITY":0.0002398,"INCLINATION":87.9104,"RA_OF_ASC_NODE":231.5525,"ARG_OF_PERICENTER":87.4661,"MEAN_ANOMALY":272.6744,"EPHEMERIS_TYPE":0,"CLASSIFICATION_TYPE":"U","NORAD_CAT_ID":56069,"ELEMENT_SET_NO":999,"REV_AT_EPOCH":15712,"BSTAR":-0.00015428,"MEAN_MOTION_DOT":-4.6e-07,"MEAN_MOTION_DDOT":0.0},{"OBJECT_NAME":"ONEWEB-0609","OBJECT_ID":"2023-043AA","EPOCH":"2026-06-04T00:33:47.175552","MEAN_MOTION":13.15547504,"ECCENTRICITY":0.0001896,"INCLINATION":87.8995,"RA_OF_ASC_NODE":261.8342,"ARG_OF_PERICENTER":102.0862,"MEAN_ANOMALY":258.0481,"EPHEMERIS_TYPE":0,"CLASSIFICATION_TYPE":"U","NORAD_CAT_ID":56070,"ELEMENT_SET_NO":999,"REV_AT_EPOCH":15470,"BSTAR":5.4785e-05,"MEAN_MOTION_DOT":3.3e-07,"MEAN_MOTION_DDOT":0.0},{"OBJECT_NAME":"ONEWEB-0613","OBJECT_ID":"2023-043AB","EPOCH":"2026-06-03T08:04:39.613440","MEAN_MOTION":13.15549283,"ECCENTRICITY":0.0001674,"INCLINATION":87.8999,"RA_OF_ASC_NODE":261.9833,"ARG_OF_PERICENTER":99.0444,"MEAN_ANOMALY":261.0876,"EPHEMERIS_TYPE":0,"CLASSIFICATION_TYPE":"U","NORAD_CAT_ID":56071,"ELEMENT_SET_NO":999,"REV_AT_EPOCH":15461,"BSTAR":-0.00013550999999999998,"MEAN_MOTION_DOT":-3.8e-07,"MEAN_MOTION_DDOT":0.0},{"OBJECT_NAME":"ONEWEB-0630","OBJECT_ID":"2023-043AC","EPOCH":"2026-06-03T07:57:48.110112","MEAN_MOTION":13.15549835,"ECCENTRICITY":0.0001696,"INCLINATION":87.9004,"RA_OF_ASC_NODE":261.9555,"ARG_OF_PERICENTER":105.0234,"MEAN_ANOMALY":255.1084,"EPHEMERIS_TYPE":0,"CLASSIFICATION_TYPE":"U","NORAD_CAT_ID":56072,"ELEMENT_SET_NO":999,"REV_AT_EPOCH":15460,"BSTAR":-0.00025951,"MEAN_MOTION_DOT":-8.5e-07,"MEAN_MOTION_DDOT":0.0},{"OBJECT_NAME":"ONEWEB-0632","OBJECT_ID":"2023-043AD","EPOCH":"2026-06-03T07:50:58.370208","MEAN_MOTION":13.15547825,"ECCENTRICITY":0.0001987,"INCLINATION":87.8996,"RA_OF_ASC_NODE":261.974,"ARG_OF_PERICENTER":93.7375,"MEAN_ANOMALY":266.3982,"EPHEMERIS_TYPE":0,"CLASSIFICATION_TYPE":"U","NORAD_CAT_ID":56073,"ELEMENT_SET_NO":999,"REV_AT_EPOCH":15460,"BSTAR":-0.00041914000000000003,"MEAN_MOTION_DOT":-1.45e-06,"MEAN_MOTION_DDOT":0.0},{"OBJECT_NAME":"ONEWEB-0633","OBJECT_ID":"2023-043AE","EPOCH":"2026-06-03T07:41:49.137504","MEAN_MOTION":13.15549828,"ECCENTRICITY":0.0001585,"INCLINATION":87.9009,"RA_OF_ASC_NODE":261.9503,"ARG_OF_PERICENTER":108.8519,"MEAN_ANOMALY":251.2783,"EPHEMERIS_TYPE":0,"CLASSIFICATION_TYPE":"U","NORAD_CAT_ID":56074,"ELEMENT_SET_NO":999,"REV_AT_EPOCH":15458,"BSTAR":-0.00028063,"MEAN_MOTION_DOT":-9.3e-07,"MEAN_MOTION_DDOT":0.0},{"OBJECT_NAME":"ONEWEB-0634","OBJECT_ID":"2023-043AF","EPOCH":"2026-06-03T07:21:18.633888","MEAN_MOTION":13.15547717,"ECCENTRICITY":0.0002136,"INCLINATION":87.9002,"RA_OF_ASC_NODE":261.9946,"ARG_OF_PERICENTER":108.4716,"MEAN_ANOMALY":251.6646,"EPHEMERIS_TYPE":0,"CLASSIFICATION_TYPE":"U","NORAD_CAT_ID":56075,"ELEMENT_SET_NO":999,"REV_AT_EPOCH":15457,"BSTAR":0.00012848000000000002,"MEAN_MOTION_DOT":6.1e-07,"MEAN_MOTION_DDOT":0.0},{"OBJECT_NAME":"ONEWEB-0635","OBJECT_ID":"2023-043AG","EPOCH":"2026-06-04T16:05:52.306656","MEAN_MOTION":13.15549519,"ECCENTRICITY":0.0002043,"INCLINATION":87.9008,"RA_OF_ASC_NODE":261.6839,"ARG_OF_PERICENTER":93.8779,"MEAN_ANOMALY":266.2585,"EPHEMERIS_TYPE":0,"CLASSIFICATION_TYPE":"U","NORAD_CAT_ID":56076,"ELEMENT_SET_NO":999,"REV_AT_EPOCH":15478,"BSTAR":0.00017447,"MEAN_MOTION_DOT":7.9e-07,"MEAN_MOTION_DDOT":0.0},{"OBJECT_NAME":"ONEWEB-0636","OBJECT_ID":"2023-043AH","EPOCH":"2026-06-03T07:03:04.019328","MEAN_MOTION":13.15547674,"ECCENTRICITY":0.000205,"INCLINATION":87.8997,"RA_OF_ASC_NODE":261.9658,"ARG_OF_PERICENTER":98.2884,"MEAN_ANOMALY":261.8479,"EPHEMERIS_TYPE":0,"CLASSIFICATION_TYPE":"U","NORAD_CAT_ID":56077,"ELEMENT_SET_NO":999,"REV_AT_EPOCH":15458,"BSTAR":0.00034031,"MEAN_MOTION_DOT":1.41e-06,"MEAN_MOTION_DDOT":0.0},{"OBJECT_NAME":"ONEWEB-0637","OBJECT_ID":"2023-043AJ","EPOCH":"2026-06-03T06:53:56.431680","MEAN_MOTION":13.15547799,"ECCENTRICITY":0.0002262,"INCLINATION":87.8999,"RA_OF_ASC_NODE":261.9837,"ARG_OF_PERICENTER":101.744,"MEAN_ANOMALY":258.3945,"EPHEMERIS_TYPE":0,"CLASSIFICATION_TYPE":"U","NORAD_CAT_ID":56078,"ELEMENT_SET_NO":999,"REV_AT_EPOCH":15460,"BSTAR":0.00038973999999999996,"MEAN_MOTION_DOT":1.6e-06,"MEAN_MOTION_DDOT":0.0},{"OBJECT_NAME":"ONEWEB-0647","OBJECT_ID":"2023-043AK","EPOCH":"2026-06-03T06:47:05.815680","MEAN_MOTION":13.15547333,"ECCENTRICITY":0.0001813,"INCLINATION":87.9004,"RA_OF_ASC_NODE":261.9966,"ARG_OF_PERICENTER":97.4416,"MEAN_ANOMALY":262.6921,"EPHEMERIS_TYPE":0,"CLASSIFICATION_TYPE":"U","NORAD_CAT_ID":56079,"ELEMENT_SET_NO":999,"REV_AT_EPOCH":15459,"BSTAR":0.00031441000000000005,"MEAN_MOTION_DOT":1.31e-06,"MEAN_MOTION_DDOT":0.0},{"OBJECT_NAME":"ONEWEB-0651","OBJECT_ID":"2023-043AL","EPOCH":"2026-06-04T06:24:02.415168","MEAN_MOTION":13.15548271,"ECCENTRICITY":0.0002153,"INCLINATION":87.8997,"RA_OF_ASC_NODE":261.795,"ARG_OF_PERICENTER":97.0859,"MEAN_ANOMALY":263.0517,"EPHEMERIS_TYPE":0,"CLASSIFICATION_TYPE":"U","NORAD_CAT_ID":56080,"ELEMENT_SET_NO":999,"REV_AT_EPOCH":15592,"BSTAR":0.00031706000000000003,"MEAN_MOTION_DOT":1.32e-06,"MEAN_MOTION_DDOT":0.0},{"OBJECT_NAME":"ONEWEB-0718","OBJECT_ID":"2023-043AM","EPOCH":"2026-06-03T06:33:23.368032","MEAN_MOTION":13.15550601,"ECCENTRICITY":0.0002065,"INCLINATION":87.9003,"RA_OF_ASC_NODE":261.9727,"ARG_OF_PERICENTER":113.2943,"MEAN_ANOMALY":246.8405,"EPHEMERIS_TYPE":0,"CLASSIFICATION_TYPE":"U","NORAD_CAT_ID":56081,"ELEMENT_SET_NO":999,"REV_AT_EPOCH":15460,"BSTAR":0.0001035,"MEAN_MOTION_DOT":5.2e-07,"MEAN_MOTION_DDOT":0.0},{"OBJECT_NAME":"ONEWEB-0561","OBJECT_ID":"2023-068A","EPOCH":"2026-06-03T08:01:12.233568","MEAN_MOTION":13.20769706,"ECCENTRICITY":0.0001895,"INCLINATION":87.9185,"RA_OF_ASC_NODE":277.2044,"ARG_OF_PERICENTER":92.5488,"MEAN_ANOMALY":267.5862,"EPHEMERIS_TYPE":0,"CLASSIFICATION_TYPE":"U","NORAD_CAT_ID":56710,"ELEMENT_SET_NO":999,"REV_AT_EPOCH":14767,"BSTAR":5.1281e-06,"MEAN_MOTION_DOT":1.5e-07,"MEAN_MOTION_DDOT":0.0},{"OBJECT_NAME":"ONEWEB-0668","OBJECT_ID":"2023-068B","EPOCH":"2026-06-03T14:20:21.511680","MEAN_MOTION":13.16593218,"ECCENTRICITY":0.000251,"INCLINATION":87.9109,"RA_OF_ASC_NODE":231.4703,"ARG_OF_PERICENTER":109.0956,"MEAN_ANOMALY":251.0447,"EPHEMERIS_TYPE":0,"CLASSIFICATION_TYPE":"U","NORAD_CAT_ID":56711,"ELEMENT_SET_NO":999,"REV_AT_EPOCH":14999,"BSTAR":0.00018582,"MEAN_MOTION_DOT":8.4e-07,"MEAN_MOTION_DDOT":0.0},{"OBJECT_NAME":"ONEWEB-0676","OBJECT_ID":"2023-068C","EPOCH":"2026-06-04T03:17:47.727744","MEAN_MOTION":13.16596441,"ECCENTRICITY":0.0002208,"INCLINATION":87.9107,"RA_OF_ASC_NODE":231.3688,"ARG_OF_PERICENTER":89.6979,"MEAN_ANOMALY":270.4405,"EPHEMERIS_TYPE":0,"CLASSIFICATION_TYPE":"U","NORAD_CAT_ID":56712,"ELEMENT_SET_NO":999,"REV_AT_EPOCH":14998,"BSTAR":0.00038546,"MEAN_MOTION_DOT":1.6e-06,"MEAN_MOTION_DDOT":0.0},{"OBJECT_NAME":"ONEWEB-0677","OBJECT_ID":"2023-068D","EPOCH":"2026-06-03T07:44:13.550784","MEAN_MOTION":13.20772151,"ECCENTRICITY":0.0002401,"INCLINATION":87.919,"RA_OF_ASC_NODE":277.1983,"ARG_OF_PERICENTER":104.3277,"MEAN_ANOMALY":255.8123,"EPHEMERIS_TYPE":0,"CLASSIFICATION_TYPE":"U","NORAD_CAT_ID":56713,"ELEMENT_SET_NO":999,"REV_AT_EPOCH":14797,"BSTAR":1.4425e-05,"MEAN_MOTION_DOT":1.9e-07,"MEAN_MOTION_DDOT":0.0},{"OBJECT_NAME":"ONEWEB-0678","OBJECT_ID":"2023-068E","EPOCH":"2026-06-03T07:37:16.559328","MEAN_MOTION":13.1554754,"ECCENTRICITY":0.0001698,"INCLINATION":87.901,"RA_OF_ASC_NODE":261.9553,"ARG_OF_PERICENTER":97.3953,"MEAN_ANOMALY":262.737,"EPHEMERIS_TYPE":0,"CLASSIFICATION_TYPE":"U","NORAD_CAT_ID":56714,"ELEMENT_SET_NO":999,"REV_AT_EPOCH":14746,"BSTAR":-0.00025113999999999996,"MEAN_MOTION_DOT":-8.2e-07,"MEAN_MOTION_DDOT":0.0},{"OBJECT_NAME":"ONEWEB-0679","OBJECT_ID":"2023-068F","EPOCH":"2026-06-03T15:21:54.971712","MEAN_MOTION":13.16593805,"ECCENTRICITY":0.0002646,"INCLINATION":87.9106,"RA_OF_ASC_NODE":231.4598,"ARG_OF_PERICENTER":98.9249,"MEAN_ANOMALY":261.2182,"EPHEMERIS_TYPE":0,"CLASSIFICATION_TYPE":"U","NORAD_CAT_ID":56715,"ELEMENT_SET_NO":999,"REV_AT_EPOCH":14994,"BSTAR":6.6154e-05,"MEAN_MOTION_DOT":3.8e-07,"MEAN_MOTION_DDOT":0.0}]